PANDORA
1 67395U 80229J   26092.70836806  .00000000  00000-0  37770-3 0    08
2 67395  97.8051  92.5464 0005802  30.9037 262.0228 14.87905891    03
